GPS BIIR-2  (PRN 13)    
1 24876C 97035A   22016.71090278 -.00000000  00000-0  00000-0 0   167
2 24876  55.4933 161.5944 0056117  54.2585 246.2501  2.00563441    13
GPS BIIR-4  (PRN 20)    
1 26360C 00025A   22016.71090278 -.00000000  00000-0  00000-0 0   160
2 26360  53.9348  85.1416 0052828 180.1467 206.8582  2.00557459    17
GPS BIIR-8  (PRN 16)    
1 27663C 03005A   22016.71090278  .00000000  00000-0  00000-0 0   167
2 27663  55.6165 279.0877 0124945  39.2294 326.9800  2.00573885    15
GPS BIIR-9  (PRN 21)    
1 27704C 03010A   22016.71090278 -.00000000  00000-0  00000-0 0   160
2 27704  54.9643  29.4545 0247018 301.0716 284.0240  2.00573345    12
GPS BIIR-10 (PRN 22)    
1 28129C 03058A   22016.71090278 -.00000000  00000-0  00000-0 0   164
2 28129  53.7471  87.7655 0070783 309.7616 212.5810  2.00568542    18
GPS BIIR-11 (PRN 19)    
1 28190C 04009A   22016.71090278  .00000000  00000-0  00000-0 0   168
2 28190  56.0892 340.0271 0087043 114.9989  51.4487  2.00563829    17
GPS BIIR-13 (PRN 02)    
1 28474C 04045A   22016.71090278 -.00000000  00000-0  00000-0 0   164
2 28474  55.2943  29.5369 0208717 276.4891 157.8713  2.00563826    16
GPS BIIRM-1 (PRN 17)    
1 28874C 05038A   22016.71090278  .00000000  00000-0  00000-0 0   160
2 28874  56.1618 337.4540 0139435 273.3999 274.8061  2.00556505    18
GPS BIIRM-2 (PRN 31)    
1 29486C 06042A   22016.71090278  .00000000  00000-0  00000-0 0   166
2 29486  54.7368 215.3090 0103812  19.7689  85.9852  2.00563300    16
GPS BIIRM-3 (PRN 12)    
1 29601C 06052A   22016.71090278  .00000000  00000-0  00000-0 0   166
2 29601  55.6189 278.0198 0083765  70.4571  73.0332  2.00570329    19
GPS BIIRM-4 (PRN 15)    
1 32260C 07047A   22016.71090278 -.00000000  00000-0  00000-0 0   167
2 32260  53.2762 146.8340 0137453  60.9019 222.4876  2.00557079    11
GPS BIIRM-5 (PRN 29)    
1 32384C 07062A   22016.71090278  .00000000  00000-0  00000-0 0   160
2 32384  56.2760 338.1958 0015973 136.8202 276.5783  2.00553817    12
GPS BIIRM-6 (PRN 07)    
1 32711C 08012A   22016.71090278  .00000000  00000-0  00000-0 0   160
2 32711  54.4940 214.2794 0156005 228.9996 110.0798  2.00560029    14
GPS BIIRM-8 (PRN 05)    
1 35752C 09043A   22016.71090278 -.00000000  00000-0  00000-0 0   164
2 35752  54.9550  91.6434 0056968  56.8176 301.3915  2.00566807    13
GPS BIIF-1  (PRN 25)    
1 36585C 10022A   22016.71090278  .00000000  00000-0  00000-0 0   167
2 36585  54.8982 273.6441 0101860  55.0563  59.9214  2.00557750    14
GPS BIIF-2  (PRN 01)    
1 37753C 11036A   22016.71090278 -.00000000  00000-0  00000-0 0   162
2 37753  56.5347  34.6155 0110732  49.6298 149.4747  2.00564784    16
GPS BIIF-3  (PRN 24)    
1 38833C 12053A   22016.71090278  .00000000  00000-0  00000-0 0   161
2 38833  53.5469 209.5677 0121131  45.1201 166.7887  2.00560233    12
GPS BIIF-4  (PRN 27)    
1 39166C 13023A   22016.71090278  .00000000  00000-0  00000-0 0   169
2 39166  55.7950 333.8864 0099135  35.0409 277.1065  2.00567122    15
GPS BIIF-5  (PRN 30)    
1 39533C 14008A   22016.71090278  .00000000  00000-0  00000-0 0   161
2 39533  53.6443 215.0581 0055129 204.4813 109.3004  2.00572721    10
GPS BIIF-6  (PRN 06)    
1 39741C 14026A   22016.71090278 -.00000000  00000-0  00000-0 0   163
2 39741  56.4994  34.1418 0028335 300.3374 172.0256  2.00566940    11
GPS BIIF-7  (PRN 09)    
1 40105C 14045A   22016.71090278 -.00000000  00000-0  00000-0 0   160
2 40105  54.6622 152.8647 0021121 108.1394 297.5247  2.00567650    11
GPS BIIF-8  (PRN 03)    
1 40294C 14068A   22016.71090278 -.00000000  00000-0  00000-0 0   164
2 40294  55.7001  93.9354 0036731  53.8890  83.6771  2.00561208    12
GPS BIIF-9  (PRN 26)    
1 40534C 15013A   22016.71090278  .00000000  00000-0  00000-0 0   161
2 40534  53.8013 270.9829 0066968  18.2628  23.9113  2.00562109    12
GPS BIIF-10 (PRN 08)    
1 40730C 15033A   22016.71090278  .00000000  00000-0  00000-0 0   161
2 40730  55.2974 332.7874 0071223   2.8905 281.8764  2.00560218    12
GPS BIIF-11 (PRN 10)    
1 41019C 15062A   22016.71090278 -.00000000  00000-0  00000-0 0   165
2 41019  55.6905  93.7751 0075607 216.1792  31.9766  2.00563419    15
GPS BIIF-12 (PRN 32)    
1 41328C 16007A   22016.71090278 -.00000000  00000-0  00000-0 0   168
2 41328  54.8838 153.4987 0055925 225.7483 313.2620  2.00553106    10
GPS BIII-1  (PRN 04)    
1 43873C 18109A   22016.71090278 -.00000000  00000-0  00000-0 0   160
2 43873  55.0647 155.8851 0016727 190.1919 244.7674  2.00564966    13
GPS BIII-2  (PRN 18)    
1 44506C 19056A   22016.71090278 -.00000000  00000-0  00000-0 0   166
2 44506  55.6054  35.0885 0020968 184.5755 152.9047  2.00569653    10
GPS BIII-3  (PRN 23)    
1 45854C 20041A   22016.71090278 -.00000000  00000-0  00000-0 0   169
2 45854  55.4067  92.3596 0019168 173.6730 104.0626  2.00561059    19
GPS BIII-4  (PRN 14)    
1 46826C 20078A   22016.71090278  .00000000  00000-0  00000-0 0   168
2 46826  54.6685 276.2533 0013269 183.9346  65.1843  2.00566916    18
GPS BIII-5  (PRN 11)    
1 48859C 21054A   22016.71090278 -.00000000  00000-0  00000-0 0   162
2 48859  55.1072  37.1625 0003192 207.1532 228.4027  2.00553992    16
